[{"OBJECT_NAME":"STARLINK-5448","OBJECT_ID":"2022-175N","EPOCH":"2026-03-09T06:29:17.314656","MEAN_MOTION":15.08870714,"ECCENTRICITY":0.00017997,"INCLINATION":53.2204,"RA_OF_ASC_NODE":31.1864,"ARG_OF_PERICENTER":93.7584,"MEAN_ANOMALY":266.3614,"EPHEMERIS_TYPE":0,"CLASSIFICATION_TYPE":"U","NORAD_CAT_ID":54770,"ELEMENT_SET_NO":999,"REV_AT_EPOCH":18006,"BSTAR":-0.00060855363,"MEAN_MOTION_DOT":-9.968e-5,"MEAN_MOTION_DDOT":0},{"OBJECT_NAME":"PEGASUS DEB","OBJECT_ID":"1994-029ED","EPOCH":"2026-03-09T22:32:35.369664","MEAN_MOTION":15.15581903,"ECCENTRICITY":0.00435925,"INCLINATION":81.9086,"RA_OF_ASC_NODE":82.9658,"ARG_OF_PERICENTER":180.8011,"MEAN_ANOMALY":179.3158,"EPHEMERIS_TYPE":0,"CLASSIFICATION_TYPE":"U","NORAD_CAT_ID":24082,"ELEMENT_SET_NO":999,"REV_AT_EPOCH":60530,"BSTAR":0.00058600752,"MEAN_MOTION_DOT":0.00011426,"MEAN_MOTION_DDOT":0}]
